{"type": "FeatureCollection", "features": [ {"type": "Feature", "properties": {"norad_id": 44542, "name": "BEIDOU-3 M24 (C46)", "group": "gnss", "lat": 44.77243348561201, "lon": -125.33693007222598, "alt_km": 21501.31769246174, "timestamp": "2025-12-02T06:27:53.257497+00:00", "meta": {"OBJECT_NAME": "BEIDOU-3 M24 (C46)", "OBJECT_ID": "2019-061A", "EPOCH": "2025-12-01T02:32:46.252896", "MEAN_MOTION": 1.86229258, "ECCENTRICITY": 0.00095598, "INCLINATION": 54.4002, "RA_OF_ASC_NODE": 189.409, "ARG_OF_PERICENTER": 23.5384, "MEAN_ANOMALY": 336.5991, "EPHEMERIS_TYPE": 0, "CLASSIFICATION_TYPE": "U", "NORAD_CAT_ID": 44542, "ELEMENT_SET_NO": 999, "REV_AT_EPOCH": 4210, "BSTAR": 0, "MEAN_MOTION_DOT": 1.18e-06, "MEAN_MOTION_DDOT": 0}, "tle": {"line1": "1 44542U 19061A   25335.10609089  .00000118  00000+0  00000+0 0  9995", "line2": "2 44542  54.4002 189.4090 0009559  23.5384 336.5991  1.86229258 42106"}}, "geometry": {"type": "Point", "coordinates": [-125.33693007222598, 44.77243348561201]}}, {"type": "Feature", "properties": {"norad_id": 44543, "name": "BEIDOU-3 M23 (C45)", "group": "gnss", "lat": -21.856823140133887, "lon": 172.6484618805219, "alt_km": 21519.96843757814, "timestamp": "2025-12-02T06:27:53.257508+00:00", "meta": {"OBJECT_NAME": "BEIDOU-3 M23 (C45)", "OBJECT_ID": "2019-061B", "EPOCH": "2025-11-30T16:39:35.372160", "MEAN_MOTION": 1.86229336, "ECCENTRICITY": 0.00060049, "INCLINATION": 54.3987, "RA_OF_ASC_NODE": 189.3914, "ARG_OF_PERICENTER": 20.8242, "MEAN_ANOMALY": 335.9718, "EPHEMERIS_TYPE": 0, "CLASSIFICATION_TYPE": "U", "NORAD_CAT_ID": 44543, "ELEMENT_SET_NO": 999, "REV_AT_EPOCH": 4209, "BSTAR": 0, "MEAN_MOTION_DOT": 1.15e-06, "MEAN_MOTION_DDOT": 0}, "tle": {"line1": "1 44543U 19061B   25334.69415940  .00000115  00000+0  00000+0 0  9997", "line2": "2 44543  54.3987 189.3914 0006004  20.8242 335.9718  1.86229336 42092"}}, "geometry": {"type": "Point", "coordinates": [172.6484618805219, -21.856823140133887]}}, {"type": "Feature", "properties": {"norad_id": 44624, "name": "EUTELSAT 5 WEST B (EGNOS/PRN 121)", "group": "gnss", "lat": -0.0348205900914198, "lon": 163.28739363203906, "alt_km": 35785.310868960514, "timestamp": "2025-12-02T06:27:53.257519+00:00", "meta": {"OBJECT_NAME": "EUTELSAT 5 WEST B (EGNOS/PRN 121)", "OBJECT_ID": "2019-067A", "EPOCH": "2025-12-01T18:55:37.396128", "MEAN_MOTION": 1.00272608, "ECCENTRICITY": 0.0003618, "INCLINATION": 0.0736, "RA_OF_ASC_NODE": 325.104, "ARG_OF_PERICENTER": 286.2446, "MEAN_ANOMALY": 98.4679, "EPHEMERIS_TYPE": 0, "CLASSIFICATION_TYPE": "U", "NORAD_CAT_ID": 44624, "ELEMENT_SET_NO": 999, "REV_AT_EPOCH": 2245, "BSTAR": 0, "MEAN_MOTION_DOT": -2e-07, "MEAN_MOTION_DDOT": 0}, "tle": {"line1": "1 44624U 19067A   25335.78862727 -.00000020  00000+0  00000+0 0  9999", "line2": "2 44624   0.0736 325.1040 0003618 286.2446  98.4679  1.00272608 22455"}}, "geometry": {"type": "Point", "coordinates": [163.28739363203906, -0.0348205900914198]}}, {"type": "Feature", "properties": {"norad_id": 44709, "name": "BEIDOU-3 IGSO-3 (C40)", "group": "gnss", "lat": -0.10413643222225738, "lon": -77.08585812581151, "alt_km": 35977.84117342556, "timestamp": "2025-12-02T06:27:53.257533+00:00", "meta": {"OBJECT_NAME": "BEIDOU-3 IGSO-3 (C40)", "OBJECT_ID": "2019-073A", "EPOCH": "2025-11-20T07:11:22.740000", "MEAN_MOTION": 1.00250097, "ECCENTRICITY": 0.0044538, "INCLINATION": 55.163, "RA_OF_ASC_NODE": 283.159, "ARG_OF_PERICENTER": 191.5856, "MEAN_ANOMALY": 168.2409, "EPHEMERIS_TYPE": 0, "CLASSIFICATION_TYPE": "U", "NORAD_CAT_ID": 44709, "ELEMENT_SET_NO": 999, "REV_AT_EPOCH": 2236, "BSTAR": 0, "MEAN_MOTION_DOT": -2.06e-06, "MEAN_MOTION_DDOT": 0}, "tle": {"line1": "1 44709U 19073A   25324.29956875 -.00000206  00000+0  00000+0 0  9998", "line2": "2 44709  55.1630 283.1590 0044538 191.5856 168.2409  1.00250097 22360"}}, "geometry": {"type": "Point", "coordinates": [-77.08585812581151, -0.10413643222225738]}}, {"type": "Feature", "properties": {"norad_id": 44793, "name": "BEIDOU-3 M22 (C44)", "group": "gnss", "lat": 10.324863844374123, "lon": 119.15953718300511, "alt_km": 21539.58534531573, "timestamp": "2025-12-02T06:27:53.257546+00:00", "meta": {"OBJECT_NAME": "BEIDOU-3 M22 (C44)", "OBJECT_ID": "2019-078A", "EPOCH": "2025-11-30T22:42:34.267680", "MEAN_MOTION": 1.86231848, "ECCENTRICITY": 0.00056075, "INCLINATION": 54.1193, "RA_OF_ASC_NODE": 306.8002, "ARG_OF_PERICENTER": 22.5114, "MEAN_ANOMALY": 337.5067, "EPHEMERIS_TYPE": 0, "CLASSIFICATION_TYPE": "U", "NORAD_CAT_ID": 44793, "ELEMENT_SET_NO": 999, "REV_AT_EPOCH": 4095, "BSTAR": 0, "MEAN_MOTION_DOT": -5.6e-07, "MEAN_MOTION_DDOT": 0}, "tle": {"line1": "1 44793U 19078A   25334.94622995 -.00000056  00000+0  00000+0 0  9995", "line2": "2 44793  54.1193 306.8002 0005607  22.5114 337.5067  1.86231848 40954"}}, "geometry": {"type": "Point", "coordinates": [119.15953718300511, 10.324863844374123]}}, {"type": "Feature", "properties": {"norad_id": 44794, "name": "BEIDOU-3 M21 (C43)", "group": "gnss", "lat": 51.47997345040117, "lon": 12.198467916016867, "alt_km": 21517.751520060847, "timestamp": "2025-12-02T06:27:53.257559+00:00", "meta": {"OBJECT_NAME": "BEIDOU-3 M21 (C43)", "OBJECT_ID": "2019-078B", "EPOCH": "2025-12-01T02:00:26.030304", "MEAN_MOTION": 1.86227539, "ECCENTRICITY": 0.00038706, "INCLINATION": 54.0922, "RA_OF_ASC_NODE": 306.7607, "ARG_OF_PERICENTER": 10.0971, "MEAN_ANOMALY": 349.9036, "EPHEMERIS_TYPE": 0, "CLASSIFICATION_TYPE": "U", "NORAD_CAT_ID": 44794, "ELEMENT_SET_NO": 999, "REV_AT_EPOCH": 4096, "BSTAR": 0, "MEAN_MOTION_DOT": -5.7e-07, "MEAN_MOTION_DDOT": 0}, "tle": {"line1": "1 44794U 19078B   25335.08363461 -.00000057  00000+0  00000+0 0  9993", "line2": "2 44794  54.0922 306.7607 0003870  10.0971 349.9036  1.86227539 40963"}}, "geometry": {"type": "Point", "coordinates": [12.198467916016867, 51.47997345040117]}}, {"type": "Feature", "properties": {"norad_id": 44850, "name": "COSMOS 2544 (759)", "group": "gnss", "lat": -60.44830664108101, "lon": -46.095015210056836, "alt_km": 19101.666911689164, "timestamp": "2025-12-02T06:27:53.257572+00:00", "meta": {"OBJECT_NAME": "COSMOS 2544 (759)", "OBJECT_ID": "2019-088A", "EPOCH": "2025-12-01T11:17:07.204992", "MEAN_MOTION": 2.13101815, "ECCENTRICITY": 0.00136421, "INCLINATION": 65.4539, "RA_OF_ASC_NODE": 80.3354, "ARG_OF_PERICENTER": 248.7415, "MEAN_ANOMALY": 111.1111, "EPHEMERIS_TYPE": 0, "CLASSIFICATION_TYPE": "U", "NORAD_CAT_ID": 44850, "ELEMENT_SET_NO": 999, "REV_AT_EPOCH": 4650, "BSTAR": 0, "MEAN_MOTION_DOT": -1.2e-07, "MEAN_MOTION_DDOT": 0}, "tle": {"line1": "1 44850U 19088A   25335.47022228 -.00000012  00000+0  00000+0 0  9994", "line2": "2 44850  65.4539  80.3354 0013642 248.7415 111.1111  2.13101815 46509"}}, "geometry": {"type": "Point", "coordinates": [-46.095015210056836, -60.44830664108101]}}, {"type": "Feature", "properties": {"norad_id": 44864, "name": "BEIDOU-3 M19 (C41)", "group": "gnss", "lat": -56.39993986980955, "lon": -19.606489906367422, "alt_km": 21486.793749135675, "timestamp": "2025-12-02T06:27:53.257583+00:00", "meta": {"OBJECT_NAME": "BEIDOU-3 M19 (C41)", "OBJECT_ID": "2019-090A", "EPOCH": "2025-12-01T09:01:40.910016", "MEAN_MOTION": 1.86231118, "ECCENTRICITY": 0.00174903, "INCLINATION": 56.3832, "RA_OF_ASC_NODE": 69.3391, "ARG_OF_PERICENTER": 284.7373, "MEAN_ANOMALY": 107.0465, "EPHEMERIS_TYPE": 0, "CLASSIFICATION_TYPE": "U", "NORAD_CAT_ID": 44864, "ELEMENT_SET_NO": 999, "REV_AT_EPOCH": 4055, "BSTAR": 0, "MEAN_MOTION_DOT": -4.1e-07, "MEAN_MOTION_DDOT": 0}, "tle": {"line1": "1 44864U 19090A   25335.37616794 -.00000041  00000+0  00000+0 0  9990", "line2": "2 44864  56.3832  69.3391 0017490 284.7373 107.0465  1.86231118 40559"}}, "geometry": {"type": "Point", "coordinates": [-19.606489906367422, -56.39993986980955]}}, {"type": "Feature", "properties": {"norad_id": 44865, "name": "BEIDOU-3 M20 (C42)", "group": "gnss", "lat": 0.32286994304003197, "lon": 69.55663950265333, "alt_km": 21509.634150761765, "timestamp": "2025-12-02T06:27:53.257594+00:00", "meta": {"OBJECT_NAME": "BEIDOU-3 M20 (C42)", "OBJECT_ID": "2019-090B", "EPOCH": "2025-12-01T04:44:21.164352", "MEAN_MOTION": 1.86231112, "ECCENTRICITY": 0.0014612, "INCLINATION": 56.3845, "RA_OF_ASC_NODE": 69.3793, "ARG_OF_PERICENTER": 297.5654, "MEAN_ANOMALY": 64.0235, "EPHEMERIS_TYPE": 0, "CLASSIFICATION_TYPE": "U", "NORAD_CAT_ID": 44865, "ELEMENT_SET_NO": 999, "REV_AT_EPOCH": 4053, "BSTAR": 0, "MEAN_MOTION_DOT": -3.9e-07, "MEAN_MOTION_DDOT": 0}, "tle": {"line1": "1 44865U 19090B   25335.19746718 -.00000039  00000+0  00000+0 0  9998", "line2": "2 44865  56.3845  69.3793 0014612 297.5654  64.0235  1.86231112 40536"}}, "geometry": {"type": "Point", "coordinates": [69.55663950265333, 0.32286994304003197]}}, {"type": "Feature", "properties": {"norad_id": 45344, "name": "BEIDOU-3 G2 (C60)", "group": "gnss", "lat": -1.2708208030228352, "lon": -111.69071062977818, "alt_km": 35776.82445909131, "timestamp": "2025-12-02T06:27:53.257606+00:00", "meta": {"OBJECT_NAME": "BEIDOU-3 G2 (C60)", "OBJECT_ID": "2020-017A", "EPOCH": "2025-12-01T19:19:57.564768", "MEAN_MOTION": 1.00270537, "ECCENTRICITY": 0.0004488, "INCLINATION": 2.9791, "RA_OF_ASC_NODE": 43.5319, "ARG_OF_PERICENTER": 263.7784, "MEAN_ANOMALY": 133.6593, "EPHEMERIS_TYPE": 0, "CLASSIFICATION_TYPE": "U", "NORAD_CAT_ID": 45344, "ELEMENT_SET_NO": 999, "REV_AT_EPOCH": 2128, "BSTAR": 0, "MEAN_MOTION_DOT": -1.21e-06, "MEAN_MOTION_DDOT": 0}, "tle": {"line1": "1 45344U 20017A   25335.80552737 -.00000121  00000+0  00000+0 0  9998", "line2": "2 45344   2.9791  43.5319 0004488 263.7784 133.6593  1.00270537 21284"}}, "geometry": {"type": "Point", "coordinates": [-111.69071062977818, -1.2708208030228352]}}]}